GPS BIIR-2  (PRN 13)    
1 24876U 97035A   17317.64231627 -.00000035  00000-0  00000-0 0  9990
2 24876  55.5198 221.2339 0033770  96.8527 263.5758  2.00565096149026
GPS BIIR-3  (PRN 11)    
1 25933U 99055A   17318.23489038 -.00000066  00000-0  00000+0 0  9999
2 25933  51.7388  71.0738 0167384  98.5052 256.5858  2.00555076132656
GPS BIIR-4  (PRN 20)    
1 26360U 00025A   17318.57427024  .00000076  00000-0  00000+0 0  9997
2 26360  53.1456 148.6162 0044230  98.6268 244.0679  2.00553385128355
GPS BIIR-5  (PRN 28)    
1 26407U 00040A   17318.37930084 -.00000060  00000-0  00000+0 0  9993
2 26407  56.5799 339.2890 0202033 271.0968 215.2947  2.00565271127029
GPS BIIR-6  (PRN 14)    
1 26605U 00071A   17318.47613378 -.00000024  00000-0  00000+0 0  9992
2 26605  55.0915 218.8750 0094839 248.8087 214.7466  2.00558782124630
GPS BIIR-7  (PRN 18)    
1 26690U 01004A   17318.48812919  .00000076  00000-0  00000+0 0  9992
2 26690  53.0649 151.5477 0183755 258.5674 327.7354  2.00567076123031
GPS BIIR-8  (PRN 16)    
1 27663U 03005A   17318.18954953 -.00000059  00000-0  00000+0 0  9990
2 27663  56.6471 339.0442 0093478  24.2869  77.4521  2.00580281108384
GPS BIIR-9  (PRN 21)    
1 27704U 03010A   17318.18606324 -.00000014  00000-0  00000+0 0  9999
2 27704  53.9531  91.9977 0243240 266.8371 161.9319  2.00575393107189
GPS BIIR-10 (PRN 22)    
1 28129U 03058A   17316.34107635  .00000065  00000-0  00000+0 0  9995
2 28129  52.9559 151.6113 0073668 265.1920  94.0278  2.00562678101842
GPS BIIR-11 (PRN 19)    
1 28190U 04009A   17318.45409565 -.00000100  00000-0  00000+0 0  9992
2 28190  56.0802  39.9778 0096294  62.0588  28.0578  2.00562520100064
GPS BIIR-12 (PRN 23)    
1 28361U 04023A   17318.49727499 -.00000015  00000-0  00000+0 0  9996
2 28361  54.0831 213.8337 0119975 222.4934 169.2256  2.00566023 98156
GPS BIIR-13 (PRN 02)    
1 28474U 04045A   17318.51783365 -.00000018  00000-0  00000+0 0  9995
2 28474  54.3284  91.5142 0175134 249.1449 161.5158  2.00569499 95510
GPS BIIRM-1 (PRN 17)    
1 28874U 05038A   17318.45394154 -.00000100  00000-0  00000+0 0  9991
2 28874  56.2305  37.2604 0123668 255.3993 216.1260  2.00559344 88912
GPS BIIRM-2 (PRN 31)    
1 29486U 06042A   17318.57599962 -.00000066  00000-0  00000+0 0  9995
2 29486  55.3074 276.2682 0087919 345.8915 131.0044  2.00577406 81639
GPS BIIRM-3 (PRN 12)    
1 29601U 06052A   17318.35465405 -.00000058  00000-0  00000+0 0  9996
2 29601  56.6210 337.9555 0063894  50.7741 309.8368  2.00562176 80544
GPS BIIRM-4 (PRN 15)    
1 32260U 07047A   17317.17319078 -.00000022  00000-0  00000+0 0  9990
2 32260  53.2086 210.1033 0097670  35.1059 325.5947  2.00566272 73905
GPS BIIRM-5 (PRN 29)    
1 32384U 07062A   17318.12084503 -.00000100  00000-0  00000+0 0  9999
2 32384  56.2986  37.8657 0002733  29.6917  73.9582  2.00551867 72651
GPS BIIRM-6 (PRN 07)    
1 32711U 08012A   17318.08148568 -.00000063  00000-0  00000+0 0  9994
2 32711  55.0378 275.6188 0112258 215.0235 144.2154  2.00558940 70830
GPS BIIRM-8 (PRN 05)    
1 35752U 09043A   17318.27764619  .00000079  00000-0  00000+0 0  9995
2 35752  54.2747 153.4307 0051493  33.6142 134.7022  2.00573001 60426
GPS BIIF-1  (PRN 25)    
1 36585U 10022A   17318.11786734 -.00000057  00000-0  00000+0 0  9991
2 36585  55.9214 334.6780 0065060  44.8841 114.1845  2.00557575 54663
GPS BIIF-2  (PRN 01)    
1 37753U 11036A   17318.31579437 -.00000006  00000-0  00000+0 0  9991
2 37753  55.5316  94.7888 0069907  34.7413 352.9763  2.00563097 46354
GPS BIIF-3  (PRN 24)    
1 38833U 12053A   17318.26641292 -.00000067  00000-0  00000+0 0  9991
2 38833  54.0665 272.3805 0061745  25.3915 334.8905  2.00563835 37428
GPS BIIF-4  (PRN 27)    
1 39166U 13023A   17318.11972961 -.00000101  00000-0  00000+0 0  9992
2 39166  55.9339  34.2399 0049564  18.7807 341.4308  2.00563771 32953
GPS BIIF-5  (PRN 30)    
1 39533U 14008A   17317.12348015 -.00000055  00000-0  00000+0 0  9999
2 39533  54.2181 277.7458 0030490 189.1463 170.7831  2.00571140 27291
GPS BIIF-6  (PRN 06)    
1 39741U 14026A   17317.40849327  .00000002  00000-0  00000+0 0  9994
2 39741  55.5166  94.3467 0008503 282.8451  77.0447  2.00550766 25583
GPS BIIF-7  (PRN 09)    
1 40105U 14045A   17318.49263448 -.00000014  00000-0  00000+0 0  9999
2 40105  54.6077 213.8218 0007783 103.4668 256.6797  2.00555800 24057
GPS BIIF-8  (PRN 03)    
1 40294U 14068A   17318.36545155  .00000081  00000-0  00000+0 0  9990
2 40294  55.0239 154.5249 0010110  22.2207 337.8930  2.00569815 22275
GPS BIIF-9  (PRN 26)    
1 40534U 15013A   17317.50857716 -.00000058  00000-0  00000+0 0  9997
2 40534  54.8709 333.6456 0022480 349.1735  10.8166  2.00576727 19322
GPS BIIF-10  (PRN 08)   
1 40730U 15033A   17318.16188053 -.00000102  00000-0  00000+0 0  9991
2 40730  55.4668  33.8415 0029992 319.9843  39.8250  2.00558692 17093
GPS BIIF-11  (PRN 10)   
1 41019U 15062A   17318.21492297  .00000081  00000-0  00000+0 0  9993
2 41019  55.0313 154.3254 0030033 198.6349 161.3239  2.00563927 14911
GPS BIIF-12  (PRN 32)   
1 41328U 16007A   17317.80737475 -.00000022  00000-0  00000+0 0  9996
2 41328  54.8623 214.0804 0016003 216.8073 143.1395  2.00571374 12967
